GLOBALSTAR M075         
1 37192U 10054E   24170.06529910 -.00000075  00000+0  15841-3 0  9992
2 37192  51.9923 210.2080 0000269 155.9522 218.7711 12.62261146630391
GLOBALSTAR M073         
1 37193U 10054F   24169.62478534 -.00000103  00000+0  26242-5 0  9999
2 37193  52.0045 125.0898 0000336  12.8967 157.4743 12.62266273631793
GLOBALSTAR M083         
1 37739U 11033A   24170.18906927 -.00000101  00000+0  17151-4 0  9994
2 37739  51.9867  72.5989 0000729  77.8098  79.8789 12.62270496601244
GLOBALSTAR M091         
1 37741U 11033C   24169.66980231 -.00000093  00000+0  59059-4 0  9991
2 37741  52.0015 302.8852 0001025 127.4948 248.0623 12.62263855597150
GLOBALSTAR M085         
1 37742U 11033D   24170.21120687 -.00000090  00000+0  78775-4 0  9999
2 37742  51.9863 252.5960 0000721 145.0882 233.3895 12.62262637598220
GLOBALSTAR M089         
1 37744U 11033F   24169.83620690 -.00000069  00000+0  19406-3 0  9997
2 37744  51.9907 210.5997 0000195 264.1183 267.0812 12.62265090598675
